ELFIN-B                 
1 43616U 18070D   21097.75759823  .00006177  00000-0  13691-3 0  9995
2 43616  93.0199 276.6742 0011864 277.8072  82.1837 15.43705843143861
ELFIN-A                 
1 43617U 18070E   21097.73725115  .00006602  00000-0  14438-3 0  9994
2 43617  93.0250 277.4454 0011276 273.8859  86.1109 15.44108401143870
SSTL S1-4               
1 43618U 18071A   21097.88131267  .00000676  00000-0  67119-4 0  9991
2 43618  97.7300 355.4553 0014183  22.5618 337.6222 14.94913950139565
NOVASAR 1               
1 43619U 18071B   21097.87161137  .00000285  00000-0  31321-4 0  9992
2 43619  97.7313 355.4614 0007171  28.5621 331.6043 14.94894284139559
BEIDOU-3 M13            
1 43622U 18072A   21097.75531340  .00000048  00000-0  00000-0 0  9994
2 43622  55.2533 126.0071 0008312 283.5740 258.4756  1.86231593 17331
BEIDOU-3 M14            
1 43623U 18072B   21097.62638354  .00000047  00000-0  00000-0 0  9993
2 43623  55.2537 126.0031 0006457 302.8782 242.9664  1.86231587 17330
AZERSPACE 2 (IS-38)     
1 43632U 18074A   21097.82549194  .00000115  00000-0  00000-0 0  9996
2 43632   0.0105 146.7149 0001653 244.5859 147.2729  1.00272509  9478
HORIZONS 3E             
1 43633U 18074B   21097.34686221 -.00000052  00000-0  00000-0 0  9998
2 43633   0.0091  73.3243 0000891 234.3025 182.0606  1.00272558  9327
CENTISPACE-1 S1         
1 43636U 18075A   21097.74826972  .00000110  00000-0  34478-4 0  9999
2 43636  98.1137 169.0288 0007643 293.5218  66.5172 14.56804425134203
1998-067PN              
1 43638U 98067PN  21097.84350640  .00043078  00000-0  26070-3 0  9993
2 43638  51.6313 250.9955 0001176  20.9318 339.1731 15.77134949142901
STARS-ME                
1 43640U 98067PQ  21097.81966294  .00089197  00000-0  36007-3 0  9994
2 43640  51.6276 240.1557 0002737 344.8355  15.2567 15.85602113143041
SAOCOM 1A               
1 43641U 18076A   21097.76462710  .00000017  00000-0  87038-5 0  9991
2 43641  97.8902 285.6963 0001445  84.7248 275.4144 14.82156742135197
YAOGAN 32 A             
1 43642U 18077A   21097.77583856  .00000059  00000-0  22143-4 0  9990
2 43642  98.1483 154.9048 0001365  77.5687 282.5658 14.59361538132951
YAOGAN 32 B             
1 43643U 18077B   21097.77570911  .00000059  00000-0  21996-4 0  9994
2 43643  98.1484 154.8832 0001372  77.8189 282.3155 14.59361084132957
BEIDOU-3 M15            
1 43647U 18078A   21097.38090200 -.00000121  00000-0  10000-3 0  9998
2 43647  55.2115   5.5441 0007741 352.8984 283.5860  1.86232713 16835
BEIDOU-3 M16            
1 43648U 18078B   21097.51274296 -.00000121  00000-0  10000-3 0  9993
2 43648  55.2078   5.5472 0005680   0.7361 272.7250  1.86232274 16853
AEHF-4 (USA 288)        
1 43651U 18079A   21097.75662194  .00000104  00000-0  00000-0 0  9998
2 43651   3.2790 312.1363 0003226 102.1150 264.3176  1.00275619  9283
HAIYANG-2B              
1 43655U 18081A   21097.77860605  .00000007  00000-0  50016-4 0  9992
2 43655  99.3485 107.3953 0000432 178.0698 182.0436 13.79300986123498
COSMOS 2528             
1 43657U 18082A   21097.82110892 -.00000059  00000-0  11915-4 0  9990
2 43657  67.1519   6.0149 0007148 279.0283  80.9992 13.96513262125112
CFOSAT                  
1 43662U 18083A   21097.94689258  .00000359  00000-0  21879-4 0  9999
2 43662  97.4579 123.9201 0001850 102.7718 341.2876 15.16371100135164
CUBEBEL-1 (BSUSAT-1)    
1 43666U 18083E   21097.90219130  .00001369  00000-0  68310-4 0  9990
2 43666  97.4632 127.1421 0016188  58.7802  25.3168 15.19109280135303
CHANGSHAGAOXIN (TY 4-01)
1 43669U 18083H   21097.90199169  .00000999  00000-0  52503-4 0  9997
2 43669  97.4535 124.4335 0012181  55.3646  28.4107 15.17936680135183
GOSAT 2                 
1 43672U 18084B   21097.55335020 -.00000126  00000-0 -86954-5 0  9993
2 43672  97.8806 210.5268 0001350  98.5121 261.6246 14.84231132132227
KHALIFASAT              
1 43676U 18084F   21097.93887863  .00000009  00000-0  69878-5 0  9990
2 43676  97.8962 218.1018 0014585 248.9705 110.9917 14.89011118132679
TEN-KOH                 
1 43677U 18084G   21097.56079906  .00000235  00000-0  29998-4 0  9990
2 43677  97.9088 220.4635 0014592 268.1776  91.7770 14.90431104132745
DIWATA-2B               
1 43678U 18084H   21097.88856453 -.00000230  00000-0 -17049-4 0  9997
2 43678  97.9114 222.8511 0008587 287.9394  72.0894 14.91724574132912
STARS-AO                
1 43679U 18084J   21097.63247883  .00000497  00000-0  54115-4 0  9990
2 43679  97.9162 223.6974 0007786 295.3271  64.7141 14.92454192132926
AUTCUBE 2               
1 43681U 18084K   21097.57523946  .00000234  00000-0  28733-4 0  9999
2 43681  97.9127 222.8260 0008078 288.0668  71.9670 14.92039369132846
BEIDOU-3 G1             
1 43683U 18085A   21097.88624753 -.00000301  00000-0  00000-0 0  9993
2 43683   1.1712 235.0744 0001526  66.1910 354.0901  1.00267602  9049
COSMOS 2529 [GLONASS-M] 
1 43687U 18086A   21097.71112348  .00000003  00000-0  00000-0 0  9990
2 43687  64.4653 257.0734 0007572 276.2913 294.4607  2.13102051 18878
METOP-C                 
1 43689U 18087A   21097.87806683 -.00000006  00000-0  17321-4 0  9994
2 43689  98.6935 159.3418 0002069 192.4955 167.6171 14.21491321125426
CICERO 10               
1 43690U 18088A   21097.85866595  .00001653  00000-0  72641-4 0  9997
2 43690  85.0371 244.2178 0012896 315.8153  44.2058 15.21013913133497
NABEO-1 & KICK STAGE    
1 43692U 18088C   21097.84676342  .00002315  00000-0  99590-4 0  9995
2 43692  85.0331 243.3377 0014156 292.3516  67.6225 15.21972801133494
IRVINE01                
1 43693U 18088D   21097.37327717  .00003330  00000-0  13173-3 0  9993
2 43693  85.0336 242.1643 0014722 289.2007  70.7643 15.24961847133605
PROXIMA I               
1 43694U 18088E   21097.77728761  .00001540  00000-0  64080-4 0  9997
2 43694  85.0316 242.0606 0016580 281.8675  78.0707 15.22743537133621
LEMUR-2-ZUPANSKI        
1 43695U 18088F   21097.75704114  .00001537  00000-0  64639-4 0  9998
2 43695  85.0312 242.8383 0014902 308.1816  51.8083 15.22417595133532
PROXIMA II              
1 43696U 18088G   21097.77545336  .00001548  00000-0  64439-4 0  9990
2 43696  85.0318 242.0696 0016627 281.7871  78.1506 15.22742532133614
LEMUR-2-CHANUSIAK       
1 43697U 18088H   21097.83826589  .00001831  00000-0  75490-4 0  9994
2 43697  85.0375 242.8265 0013278 284.9580  75.0193 15.23253786133627
GSAT-29                 
1 43698U 18089A   21097.88313128  .00000064  00000-0  00000-0 0  9999
2 43698   0.0767  91.2934 0001329 276.2262 201.8272  1.00271148  8770
ES'HAIL 2               
1 43700U 18090A   21097.85257883  .00000124  00000-0  00000-0 0  9994
2 43700   0.0195 222.2081 0002777 196.4222 110.4472  1.00274883  8669
BEIDOU-3 M17            
1 43706U 18093A   21097.27569442 -.00000029  00000-0  00000-0 0  9991
2 43706  54.5123 246.8901 0007692 274.2299  96.9021  1.86231778 16200
BEIDOU-3 M18            
1 43707U 18093B   21097.67697185 -.00000034  00000-0  00000-0 0  9998
2 43707  54.5133 246.8683 0006875 304.9293  66.0305  1.86232025 16216
TIANZHI 1               
1 43710U 18094A   21097.93608843  .00000515  00000-0  24169-4 0  9994
2 43710  97.4061 107.6888 0015791  89.0872 357.3154 15.23985861132461
SHIYAN 6 (SY-6)         
1 43711U 18094B   21097.91466953  .00000495  00000-0  25812-4 0  9990
2 43711  97.4140 103.8968 0014042  98.4791 261.8037 15.20427211132195
TIANPING 1A             
1 43712U 18094C   21097.96644941  .00001185  00000-0  50848-4 0  9995
2 43712  97.4060 107.9295 0015180  85.7725 304.4072 15.24609807132487
JIADING 1               
1 43713U 18094D   21097.96934738  .00000646  00000-0  29116-4 0  9997
2 43713  97.4053 108.0155 0016091  89.8106 300.5907 15.24475077132481
TIANPING 1B             
1 43714U 18094E   21097.92504624  .00000721  00000-0  32493-4 0  9997
2 43714  97.4063 107.7396 0014625  87.7438   0.3774 15.24157993132461
MOHAMMED VI-B           
1 43717U 18095A   21097.74162721  .00000071  00000-0  17166-4 0  9997
2 43717  97.9480 171.3051 0001363  87.6513 272.4850 14.77081595128233
HYSIS                   
1 43719U 18096A   21097.92516387  .00000092  00000-0  19448-4 0  9999
2 43719  97.8651 165.2549 0005647  50.3369 309.8322 14.78607148127195
HSAT                    
1 43720U 18096B   21097.82095405  .00006161  00000-0  20645-3 0  9996
2 43720  97.3936 176.9781 0015627 154.1884 206.0141 15.31176724131417
FACSAT-1                
1 43721U 18096C   21097.89881698  .00002003  00000-0  74619-4 0  9993
2 43721  97.3880 175.5821 0017629 156.3625 292.9257 15.28504035131347
CENTAURI-2              
1 43722U 18096D   21097.77157698  .00003324  00000-0  11841-3 0  9991
2 43722  97.3908 176.1157 0017509 156.2044 204.0009 15.29500477131356
FLOCK 3R-9              
1 43723U 18096E   21097.99274487  .00006818  00000-0  22951-3 0  9997
2 43723  97.3904 177.4307 0016320 153.3647  20.2515 15.30974259131457
FLOCK 3R-12             
1 43724U 18096F   21097.88291635  .00004615  00000-0  15617-3 0  9994
2 43724  97.3920 177.3736 0016953 154.9883 205.2183 15.30974028131441
FLOCK 3R-11             
1 43725U 18096G   21097.60844084  .00006291  00000-0  21195-3 0  9997
2 43725  97.3917 177.1066 0016938 155.8694 204.3344 15.30968627131408
FLOCK 3R-8              
1 43727U 18096J   21097.78526655  .00001859  00000-0  64493-4 0  9993
2 43727  97.3930 177.4478 0017284 156.8497 203.3526 15.30963231131432
KEPLER-1 (CASE)         
1 43729U 18096L   21097.88852617  .00004111  00000-0  14322-3 0  9995
2 43729  97.3926 177.0317 0017859 159.7421 200.4532 15.30080412131418
GLOBAL-1                
1 43730U 18096M   21097.61815645  .00001310  00000-0  50217-4 0  9990
2 43730  97.3923 175.9970 0019678 163.4996 196.6889 15.28171743131325
LEMUR-2-ORZULAK         
1 43731U 18096N   21097.47713953  .00004362  00000-0  14819-3 0  9991
2 43731  97.3944 177.3194 0020018 159.3937 200.8116 15.30826389131396
